[{"OBJECT_NAME":"ONEWEB-0709","OBJECT_ID":"2023-004AJ","EPOCH":"2026-01-03T02:21:18.260928","MEAN_MOTION":13.11417745,"ECCENTRICITY":8.422e-5,"INCLINATION":87.8833,"RA_OF_ASC_NODE":53.956,"ARG_OF_PERICENTER":99.0098,"MEAN_ANOMALY":261.1125,"EPHEMERIS_TYPE":0,"CLASSIFICATION_TYPE":"U","NORAD_CAT_ID":55172,"ELEMENT_SET_NO":999,"REV_AT_EPOCH":14423,"BSTAR":-0.00051338278,"MEAN_MOTION_DOT":-1.69e-6,"MEAN_MOTION_DDOT":0},{"OBJECT_NAME":"ONEWEB-0710","OBJECT_ID":"2023-004AK","EPOCH":"2026-01-03T02:50:43.205568","MEAN_MOTION":13.1764913,"ECCENTRICITY":0.00018145,"INCLINATION":87.9086,"RA_OF_ASC_NODE":38.6849,"ARG_OF_PERICENTER":100.534,"MEAN_ANOMALY":259.5996,"EPHEMERIS_TYPE":0,"CLASSIFICATION_TYPE":"U","NORAD_CAT_ID":55173,"ELEMENT_SET_NO":999,"REV_AT_EPOCH":14584,"BSTAR":0.00014315537,"MEAN_MOTION_DOT":6.8e-7,"MEAN_MOTION_DDOT":0},{"OBJECT_NAME":"ONEWEB-0711","OBJECT_ID":"2023-004AL","EPOCH":"2026-01-03T03:29:41.128224","MEAN_MOTION":13.11417692,"ECCENTRICITY":0.00022858,"INCLINATION":87.8839,"RA_OF_ASC_NODE":53.9224,"ARG_OF_PERICENTER":115.4697,"MEAN_ANOMALY":244.6667,"EPHEMERIS_TYPE":0,"CLASSIFICATION_TYPE":"U","NORAD_CAT_ID":55174,"ELEMENT_SET_NO":999,"REV_AT_EPOCH":14420,"BSTAR":-3.904951e-5,"MEAN_MOTION_DOT":-1.0e-8,"MEAN_MOTION_DDOT":0},{"OBJECT_NAME":"ONEWEB-0713","OBJECT_ID":"2023-004AM","EPOCH":"2026-01-03T03:56:31.263072","MEAN_MOTION":13.11416917,"ECCENTRICITY":0.00020436,"INCLINATION":87.8835,"RA_OF_ASC_NODE":53.9195,"ARG_OF_PERICENTER":110.3741,"MEAN_ANOMALY":249.7607,"EPHEMERIS_TYPE":0,"CLASSIFICATION_TYPE":"U","NORAD_CAT_ID":55175,"ELEMENT_SET_NO":999,"REV_AT_EPOCH":14419,"BSTAR":-0.0014784536,"MEAN_MOTION_DOT":-5.11e-6,"MEAN_MOTION_DDOT":0},{"OBJECT_NAME":"ONEWEB-0715","OBJECT_ID":"2023-004AN","EPOCH":"2026-01-03T03:49:11.681472","MEAN_MOTION":13.11416297,"ECCENTRICITY":0.00011806,"INCLINATION":87.8836,"RA_OF_ASC_NODE":53.9217,"ARG_OF_PERICENTER":118.6443,"MEAN_ANOMALY":241.4804,"EPHEMERIS_TYPE":0,"CLASSIFICATION_TYPE":"U","NORAD_CAT_ID":55176,"ELEMENT_SET_NO":999,"REV_AT_EPOCH":14423,"BSTAR":-0.0014213253,"MEAN_MOTION_DOT":-4.91e-6,"MEAN_MOTION_DDOT":0},{"OBJECT_NAME":"ONEWEB-0716","OBJECT_ID":"2023-004AP","EPOCH":"2026-01-03T02:40:58.332000","MEAN_MOTION":13.17648921,"ECCENTRICITY":0.00017638,"INCLINATION":87.9087,"RA_OF_ASC_NODE":38.6873,"ARG_OF_PERICENTER":87.0434,"MEAN_ANOMALY":273.09,"EPHEMERIS_TYPE":0,"CLASSIFICATION_TYPE":"U","NORAD_CAT_ID":55177,"ELEMENT_SET_NO":999,"REV_AT_EPOCH":14584,"BSTAR":-0.00039975866,"MEAN_MOTION_DOT":-1.42e-6,"MEAN_MOTION_DDOT":0},{"OBJECT_NAME":"ONEWEB-0717","OBJECT_ID":"2023-004AQ","EPOCH":"2026-01-03T00:27:19.610208","MEAN_MOTION":13.17647673,"ECCENTRICITY":0.00020509,"INCLINATION":87.9099,"RA_OF_ASC_NODE":38.679,"ARG_OF_PERICENTER":115.0726,"MEAN_ANOMALY":245.0619,"EPHEMERIS_TYPE":0,"CLASSIFICATION_TYPE":"U","NORAD_CAT_ID":55178,"ELEMENT_SET_NO":999,"REV_AT_EPOCH":14588,"BSTAR":0.00045350746,"MEAN_MOTION_DOT":1.89e-6,"MEAN_MOTION_DDOT":0},{"OBJECT_NAME":"ONEWEB-0719","OBJECT_ID":"2023-004AR","EPOCH":"2026-01-03T02:31:15.199392","MEAN_MOTION":13.1765319,"ECCENTRICITY":0.00019673,"INCLINATION":87.91,"RA_OF_ASC_NODE":38.6441,"ARG_OF_PERICENTER":91.619,"MEAN_ANOMALY":268.5167,"EPHEMERIS_TYPE":0,"CLASSIFICATION_TYPE":"U","NORAD_CAT_ID":55179,"ELEMENT_SET_NO":999,"REV_AT_EPOCH":14584,"BSTAR":-0.0022193207,"MEAN_MOTION_DOT":-8.49e-6,"MEAN_MOTION_DDOT":0},{"OBJECT_NAME":"ONEWEB-0530","OBJECT_ID":"2023-029A","EPOCH":"2026-01-03T05:50:53.890656","MEAN_MOTION":13.20771123,"ECCENTRICITY":0.0002068,"INCLINATION":87.9214,"RA_OF_ASC_NODE":307.3817,"ARG_OF_PERICENTER":89.3067,"MEAN_ANOMALY":270.8304,"EPHEMERIS_TYPE":0,"CLASSIFICATION_TYPE":"U","NORAD_CAT_ID":55796,"ELEMENT_SET_NO":999,"REV_AT_EPOCH":13937,"BSTAR":4.0110131e-5,"MEAN_MOTION_DOT":2.9e-7,"MEAN_MOTION_DDOT":0},{"OBJECT_NAME":"ONEWEB-0534","OBJECT_ID":"2023-029B","EPOCH":"2026-01-03T07:21:49.439808","MEAN_MOTION":13.20771421,"ECCENTRICITY":0.00018038,"INCLINATION":87.9214,"RA_OF_ASC_NODE":307.3698,"ARG_OF_PERICENTER":74.2498,"MEAN_ANOMALY":285.8834,"EPHEMERIS_TYPE":0,"CLASSIFICATION_TYPE":"U","NORAD_CAT_ID":55797,"ELEMENT_SET_NO":999,"REV_AT_EPOCH":13938,"BSTAR":0.0001777262,"MEAN_MOTION_DOT":8.5e-7,"MEAN_MOTION_DDOT":0},{"OBJECT_NAME":"ONEWEB-0556","OBJECT_ID":"2023-029C","EPOCH":"2026-01-03T05:41:47.280192","MEAN_MOTION":13.20770295,"ECCENTRICITY":0.00026293,"INCLINATION":87.9218,"RA_OF_ASC_NODE":307.3842,"ARG_OF_PERICENTER":71.3481,"MEAN_ANOMALY":288.7938,"EPHEMERIS_TYPE":0,"CLASSIFICATION_TYPE":"U","NORAD_CAT_ID":55798,"ELEMENT_SET_NO":999,"REV_AT_EPOCH":13937,"BSTAR":-0.00047838693,"MEAN_MOTION_DOT":-1.82e-6,"MEAN_MOTION_DDOT":0},{"OBJECT_NAME":"ONEWEB-0562","OBJECT_ID":"2023-029D","EPOCH":"2026-01-03T07:12:43.124832","MEAN_MOTION":13.20772215,"ECCENTRICITY":0.00025267,"INCLINATION":87.9213,"RA_OF_ASC_NODE":307.3536,"ARG_OF_PERICENTER":88.8177,"MEAN_ANOMALY":271.3245,"EPHEMERIS_TYPE":0,"CLASSIFICATION_TYPE":"U","NORAD_CAT_ID":55799,"ELEMENT_SET_NO":999,"REV_AT_EPOCH":13938,"BSTAR":-0.00025641647,"MEAN_MOTION_DOT":-9.1e-7,"MEAN_MOTION_DDOT":0},{"OBJECT_NAME":"ONEWEB-0563","OBJECT_ID":"2023-029E","EPOCH":"2026-01-03T07:03:38.524896","MEAN_MOTION":13.20771314,"ECCENTRICITY":0.00018238,"INCLINATION":87.9218,"RA_OF_ASC_NODE":307.3834,"ARG_OF_PERICENTER":70.2423,"MEAN_ANOMALY":289.8907,"EPHEMERIS_TYPE":0,"CLASSIFICATION_TYPE":"U","NORAD_CAT_ID":55800,"ELEMENT_SET_NO":999,"REV_AT_EPOCH":13937,"BSTAR":4.7087149e-5,"MEAN_MOTION_DOT":3.2e-7,"MEAN_MOTION_DDOT":0},{"OBJECT_NAME":"ONEWEB-0564","OBJECT_ID":"2023-029F","EPOCH":"2026-01-03T06:54:32.699808","MEAN_MOTION":13.20771587,"ECCENTRICITY":0.00019953,"INCLINATION":87.9212,"RA_OF_ASC_NODE":307.3589,"ARG_OF_PERICENTER":84.7183,"MEAN_ANOMALY":275.4178,"EPHEMERIS_TYPE":0,"CLASSIFICATION_TYPE":"U","NORAD_CAT_ID":55801,"ELEMENT_SET_NO":999,"REV_AT_EPOCH":13938,"BSTAR":-2.0622016e-5,"MEAN_MOTION_DOT":5.0e-8,"MEAN_MOTION_DDOT":0},{"OBJECT_NAME":"ONEWEB-0638","OBJECT_ID":"2023-029G","EPOCH":"2026-01-03T07:02:46.695264","MEAN_MOTION":13.14502213,"ECCENTRICITY":0.00022234,"INCLINATION":87.9003,"RA_OF_ASC_NODE":322.6217,"ARG_OF_PERICENTER":79.5177,"MEAN_ANOMALY":280.6203,"EPHEMERIS_TYPE":0,"CLASSIFICATION_TYPE":"U","NORAD_CAT_ID":55802,"ELEMENT_SET_NO":999,"REV_AT_EPOCH":13773,"BSTAR":-0.00047379637,"MEAN_MOTION_DOT":-1.63e-6,"MEAN_MOTION_DDOT":0},{"OBJECT_NAME":"ONEWEB-0639","OBJECT_ID":"2023-029H","EPOCH":"2026-01-03T06:46:07.083552","MEAN_MOTION":13.19726139,"ECCENTRICITY":0.00015928,"INCLINATION":87.9213,"RA_OF_ASC_NODE":337.7921,"ARG_OF_PERICENTER":44.6467,"MEAN_ANOMALY":315.4793,"EPHEMERIS_TYPE":0,"CLASSIFICATION_TYPE":"U","NORAD_CAT_ID":55803,"ELEMENT_SET_NO":999,"REV_AT_EPOCH":13715,"BSTAR":0.00014548909,"MEAN_MOTION_DOT":7.1e-7,"MEAN_MOTION_DDOT":0}]
