ONEWEB-0709             
1 55172U 23004AJ  26003.09812802 -.00000169  00000+0 -51338-3 0  9990
2 55172  87.8833  53.9560 0000842  99.0098 261.1125 13.11417745144232
ONEWEB-0710             
1 55173U 23004AK  26003.11855562  .00000068  00000+0  14316-3 0  9995
2 55173  87.9086  38.6849 0001814 100.5340 259.5996 13.17649130145848
ONEWEB-0711             
1 55174U 23004AL  26003.14561491 -.00000001  00000+0 -39050-4 0  9996
2 55174  87.8839  53.9224 0002285 115.4697 244.6667 13.11417692144203
ONEWEB-0713             
1 55175U 23004AM  26003.16425073 -.00000511  00000+0 -14785-2 0  9996
2 55175  87.8835  53.9195 0002043 110.3741 249.7607 13.11416917144190
ONEWEB-0715             
1 55176U 23004AN  26003.15916298 -.00000491  00000+0 -14213-2 0  9993
2 55176  87.8836  53.9217 0001180 118.6443 241.4804 13.11416297144232
ONEWEB-0716             
1 55177U 23004AP  26003.11178625 -.00000142  00000+0 -39976-3 0  9991
2 55177  87.9087  38.6873 0001763  87.0434 273.0900 13.17648921145849
ONEWEB-0717             
1 55178U 23004AQ  26003.01897697  .00000189  00000+0  45351-3 0  9991
2 55178  87.9099  38.6790 0002050 115.0726 245.0619 13.17647673145880
ONEWEB-0719             
1 55179U 23004AR  26003.10503703 -.00000849  00000+0 -22193-2 0  9997
2 55179  87.9100  38.6441 0001967  91.6190 268.5167 13.17653190145842
ONEWEB-0530             
1 55796U 23029A   26003.24367929  .00000029  00000+0  40110-4 0  9991
2 55796  87.9214 307.3817 0002068  89.3067 270.8304 13.20771123139377
ONEWEB-0534             
1 55797U 23029B   26003.30682222  .00000085  00000+0  17773-3 0  9995
2 55797  87.9214 307.3698 0001803  74.2498 285.8834 13.20771421139388
ONEWEB-0556             
1 55798U 23029C   26003.23735278 -.00000182  00000+0 -47839-3 0  9994
2 55798  87.9218 307.3842 0002629  71.3481 288.7938 13.20770295139375
ONEWEB-0562             
1 55799U 23029D   26003.30049913 -.00000091  00000+0 -25642-3 0  9994
2 55799  87.9213 307.3536 0002526  88.8177 271.3245 13.20772215139386
ONEWEB-0563             
1 55800U 23029E   26003.29419589  .00000032  00000+0  47087-4 0  9996
2 55800  87.9218 307.3834 0001823  70.2423 289.8907 13.20771314139370
ONEWEB-0564             
1 55801U 23029F   26003.28787847  .00000005  00000+0 -20622-4 0  9998
2 55801  87.9212 307.3589 0001995  84.7183 275.4178 13.20771587139389
ONEWEB-0638             
1 55802U 23029G   26003.29359601 -.00000163  00000+0 -47380-3 0  9998
2 55802  87.9003 322.6217 0002223  79.5177 280.6203 13.14502213137731
ONEWEB-0639             
1 55803U 23029H   26003.28202643  .00000071  00000+0  14549-3 0  9998
2 55803  87.9213 337.7921 0001592  44.6467 315.4793 13.19726139137154
